[{"OBJECT_NAME":"STARLINK-33911","OBJECT_ID":"2025-091C","EPOCH":"2025-09-18T03:07:05.568384","MEAN_MOTION":15.27576317,"ECCENTRICITY":0.00015244,"INCLINATION":42.9993,"RA_OF_ASC_NODE":299.9001,"ARG_OF_PERICENTER":278.2286,"MEAN_ANOMALY":81.8392,"EPHEMERIS_TYPE":0,"CLASSIFICATION_TYPE":"U","NORAD_CAT_ID":63777,"ELEMENT_SET_NO":999,"REV_AT_EPOCH":2259,"BSTAR":0.00087987931,"MEAN_MOTION_DOT":0.00024027,"MEAN_MOTION_DDOT":0},{"OBJECT_NAME":"STARLINK-33938","OBJECT_ID":"2025-091D","EPOCH":"2025-09-18T11:26:05.897760","MEAN_MOTION":15.27596739,"ECCENTRICITY":0.00012405,"INCLINATION":43.0019,"RA_OF_ASC_NODE":305.1677,"ARG_OF_PERICENTER":262.2952,"MEAN_ANOMALY":97.7759,"EPHEMERIS_TYPE":0,"CLASSIFICATION_TYPE":"U","NORAD_CAT_ID":63778,"ELEMENT_SET_NO":999,"REV_AT_EPOCH":2265,"BSTAR":0.00081559049,"MEAN_MOTION_DOT":0.0002226,"MEAN_MOTION_DDOT":0},{"OBJECT_NAME":"STARLINK-33881","OBJECT_ID":"2025-091E","EPOCH":"2025-09-18T02:36:19.215072","MEAN_MOTION":15.27581746,"ECCENTRICITY":0.00014483,"INCLINATION":43.0013,"RA_OF_ASC_NODE":307.5673,"ARG_OF_PERICENTER":267.6873,"MEAN_ANOMALY":92.3813,"EPHEMERIS_TYPE":0,"CLASSIFICATION_TYPE":"U","NORAD_CAT_ID":63779,"ELEMENT_SET_NO":999,"REV_AT_EPOCH":2250,"BSTAR":0.00088608582,"MEAN_MOTION_DOT":0.00024202,"MEAN_MOTION_DDOT":0},{"OBJECT_NAME":"STARLINK-33846","OBJECT_ID":"2025-091F","EPOCH":"2025-09-16T20:32:31.546752","MEAN_MOTION":15.27588953,"ECCENTRICITY":0.00013559,"INCLINATION":43.0045,"RA_OF_ASC_NODE":314.5042,"ARG_OF_PERICENTER":275.3129,"MEAN_ANOMALY":84.7568,"EPHEMERIS_TYPE":0,"CLASSIFICATION_TYPE":"U","NORAD_CAT_ID":63780,"ELEMENT_SET_NO":999,"REV_AT_EPOCH":2236,"BSTAR":0.00065091569,"MEAN_MOTION_DOT":0.00017697,"MEAN_MOTION_DDOT":0},{"OBJECT_NAME":"STARLINK-33883","OBJECT_ID":"2025-091G","EPOCH":"2025-09-16T20:26:58.485984","MEAN_MOTION":15.2758387,"ECCENTRICITY":7.891e-5,"INCLINATION":43.0012,"RA_OF_ASC_NODE":314.4747,"ARG_OF_PERICENTER":282.454,"MEAN_ANOMALY":77.6223,"EPHEMERIS_TYPE":0,"CLASSIFICATION_TYPE":"U","NORAD_CAT_ID":63781,"ELEMENT_SET_NO":999,"REV_AT_EPOCH":2231,"BSTAR":0.00032636458,"MEAN_MOTION_DOT":8.731e-5,"MEAN_MOTION_DDOT":0},{"OBJECT_NAME":"STARLINK-33842","OBJECT_ID":"2025-091H","EPOCH":"2025-09-18T11:20:32.809344","MEAN_MOTION":15.27595078,"ECCENTRICITY":0.00014245,"INCLINATION":43.0004,"RA_OF_ASC_NODE":305.1409,"ARG_OF_PERICENTER":264.5185,"MEAN_ANOMALY":95.5504,"EPHEMERIS_TYPE":0,"CLASSIFICATION_TYPE":"U","NORAD_CAT_ID":63782,"ELEMENT_SET_NO":999,"REV_AT_EPOCH":2265,"BSTAR":0.00076165017,"MEAN_MOTION_DOT":0.00020766,"MEAN_MOTION_DDOT":0},{"OBJECT_NAME":"STARLINK-33892","OBJECT_ID":"2025-091J","EPOCH":"2025-09-17T03:55:33.334464","MEAN_MOTION":15.27580306,"ECCENTRICITY":0.00027437,"INCLINATION":43.0009,"RA_OF_ASC_NODE":312.5087,"ARG_OF_PERICENTER":280.2078,"MEAN_ANOMALY":79.8464,"EPHEMERIS_TYPE":0,"CLASSIFICATION_TYPE":"U","NORAD_CAT_ID":63783,"ELEMENT_SET_NO":999,"REV_AT_EPOCH":2236,"BSTAR":0.0010393729,"MEAN_MOTION_DOT":0.00028451,"MEAN_MOTION_DDOT":0},{"OBJECT_NAME":"STARLINK-33933","OBJECT_ID":"2025-091K","EPOCH":"2025-09-18T03:29:18.345408","MEAN_MOTION":15.27592933,"ECCENTRICITY":0.00014502,"INCLINATION":42.9998,"RA_OF_ASC_NODE":300.0266,"ARG_OF_PERICENTER":271.5071,"MEAN_ANOMALY":88.5615,"EPHEMERIS_TYPE":0,"CLASSIFICATION_TYPE":"U","NORAD_CAT_ID":63784,"ELEMENT_SET_NO":999,"REV_AT_EPOCH":2270,"BSTAR":0.00075502282,"MEAN_MOTION_DOT":0.00020581,"MEAN_MOTION_DDOT":0},{"OBJECT_NAME":"STARLINK-33906","OBJECT_ID":"2025-091L","EPOCH":"2025-09-18T03:39:01.259424","MEAN_MOTION":15.27567181,"ECCENTRICITY":0.00018363,"INCLINATION":42.9963,"RA_OF_ASC_NODE":307.0298,"ARG_OF_PERICENTER":298.6973,"MEAN_ANOMALY":61.3694,"EPHEMERIS_TYPE":0,"CLASSIFICATION_TYPE":"U","NORAD_CAT_ID":63785,"ELEMENT_SET_NO":999,"REV_AT_EPOCH":2246,"BSTAR":5.3789224e-5,"MEAN_MOTION_DOT":1.218e-5,"MEAN_MOTION_DDOT":0},{"OBJECT_NAME":"STARLINK-33923","OBJECT_ID":"2025-091M","EPOCH":"2025-09-18T03:37:10.186176","MEAN_MOTION":15.27587226,"ECCENTRICITY":5.536e-5,"INCLINATION":42.996,"RA_OF_ASC_NODE":307.0197,"ARG_OF_PERICENTER":272.3296,"MEAN_ANOMALY":87.7492,"EPHEMERIS_TYPE":0,"CLASSIFICATION_TYPE":"U","NORAD_CAT_ID":63786,"ELEMENT_SET_NO":999,"REV_AT_EPOCH":2246,"BSTAR":0.00075684161,"MEAN_MOTION_DOT":0.00020628,"MEAN_MOTION_DDOT":0},{"OBJECT_NAME":"STARLINK-33947","OBJECT_ID":"2025-091N","EPOCH":"2025-09-17T10:52:54.049440","MEAN_MOTION":15.27562702,"ECCENTRICITY":0.00011648,"INCLINATION":43.0035,"RA_OF_ASC_NODE":311.2497,"ARG_OF_PERICENTER":271.7263,"MEAN_ANOMALY":88.3455,"EPHEMERIS_TYPE":0,"CLASSIFICATION_TYPE":"U","NORAD_CAT_ID":63787,"ELEMENT_SET_NO":999,"REV_AT_EPOCH":2240,"BSTAR":0.00057373574,"MEAN_MOTION_DOT":0.00015551,"MEAN_MOTION_DDOT":0},{"OBJECT_NAME":"STARLINK-33882","OBJECT_ID":"2025-091P","EPOCH":"2025-09-18T11:16:50.741472","MEAN_MOTION":15.275965,"ECCENTRICITY":0.00013973,"INCLINATION":43.0014,"RA_OF_ASC_NODE":305.1145,"ARG_OF_PERICENTER":265.1054,"MEAN_ANOMALY":94.9638,"EPHEMERIS_TYPE":0,"CLASSIFICATION_TYPE":"U","NORAD_CAT_ID":63788,"ELEMENT_SET_NO":999,"REV_AT_EPOCH":2255,"BSTAR":0.00073175145,"MEAN_MOTION_DOT":0.00019939,"MEAN_MOTION_DDOT":0},{"OBJECT_NAME":"STARLINK-33875","OBJECT_ID":"2025-091Q","EPOCH":"2025-09-18T04:43:34.058208","MEAN_MOTION":15.27587493,"ECCENTRICITY":0.00013412,"INCLINATION":43.0021,"RA_OF_ASC_NODE":306.4997,"ARG_OF_PERICENTER":247.656,"MEAN_ANOMALY":112.415,"EPHEMERIS_TYPE":0,"CLASSIFICATION_TYPE":"U","NORAD_CAT_ID":63789,"ELEMENT_SET_NO":999,"REV_AT_EPOCH":2252,"BSTAR":0.0008817815,"MEAN_MOTION_DOT":0.00024087,"MEAN_MOTION_DDOT":0},{"OBJECT_NAME":"STARLINK-33869","OBJECT_ID":"2025-091R","EPOCH":"2025-09-18T04:34:18.690240","MEAN_MOTION":15.27617125,"ECCENTRICITY":0.00036682,"INCLINATION":43.0028,"RA_OF_ASC_NODE":306.4521,"ARG_OF_PERICENTER":156.3166,"MEAN_ANOMALY":203.7855,"EPHEMERIS_TYPE":0,"CLASSIFICATION_TYPE":"U","NORAD_CAT_ID":63790,"ELEMENT_SET_NO":999,"REV_AT_EPOCH":2247,"BSTAR":0.0011507535,"MEAN_MOTION_DOT":0.0003158,"MEAN_MOTION_DDOT":0},{"OBJECT_NAME":"STARLINK-33935","OBJECT_ID":"2025-091S","EPOCH":"2025-09-16T20:39:55.703232","MEAN_MOTION":15.27588505,"ECCENTRICITY":9.24e-5,"INCLINATION":43.0009,"RA_OF_ASC_NODE":314.5437,"ARG_OF_PERICENTER":287.7227,"MEAN_ANOMALY":72.3524,"EPHEMERIS_TYPE":0,"CLASSIFICATION_TYPE":"U","NORAD_CAT_ID":63791,"ELEMENT_SET_NO":999,"REV_AT_EPOCH":2242,"BSTAR":0.00066794145,"MEAN_MOTION_DOT":0.00018168,"MEAN_MOTION_DDOT":0},{"OBJECT_NAME":"STARLINK-33916","OBJECT_ID":"2025-091T","EPOCH":"2025-09-18T03:57:31.744800","MEAN_MOTION":15.2757109,"ECCENTRICITY":8.555e-5,"INCLINATION":42.9981,"RA_OF_ASC_NODE":307.1273,"ARG_OF_PERICENTER":290.3361,"MEAN_ANOMALY":69.7399,"EPHEMERIS_TYPE":0,"CLASSIFICATION_TYPE":"U","NORAD_CAT_ID":63792,"ELEMENT_SET_NO":999,"REV_AT_EPOCH":2251,"BSTAR":0.00061808104,"MEAN_MOTION_DOT":0.0001678,"MEAN_MOTION_DDOT":0}]
