STARLINK-33911          
1 63777U 25091C   25261.12992556  .00024027  00000+0  87988-3 0  9999
2 63777  42.9993 299.9001 0001524 278.2286  81.8392 15.27576317 22598
STARLINK-33938          
1 63778U 25091D   25261.47645715  .00022260  00000+0  81559-3 0  9995
2 63778  43.0019 305.1677 0001240 262.2952  97.7759 15.27596739 22657
STARLINK-33881          
1 63779U 25091E   25261.10855573  .00024202  00000+0  88609-3 0  9992
2 63779  43.0013 307.5673 0001448 267.6873  92.3813 15.27581746 22503
STARLINK-33846          
1 63780U 25091F   25259.85592068  .00017697  00000+0  65092-3 0  9991
2 63780  43.0045 314.5042 0001355 275.3129  84.7568 15.27588953 22368
STARLINK-33883          
1 63781U 25091G   25259.85206581  .00008731  00000+0  32636-3 0  9991
2 63781  43.0012 314.4747 0000789 282.4540  77.6223 15.27583870 22317
STARLINK-33842          
1 63782U 25091H   25261.47260196  .00020766  00000+0  76165-3 0  9992
2 63782  43.0004 305.1409 0001424 264.5185  95.5504 15.27595078 22655
STARLINK-33892          
1 63783U 25091J   25260.16358026  .00028451  00000+0  10394-2 0  9998
2 63783  43.0009 312.5087 0002743 280.2078  79.8464 15.27580306 22362
STARLINK-33933          
1 63784U 25091K   25261.14535122  .00020581  00000+0  75502-3 0  9991
2 63784  42.9998 300.0266 0001450 271.5071  88.5615 15.27592933 22701
STARLINK-33906          
1 63785U 25091L   25261.15209791  .00001218  00000+0  53789-4 0  9993
2 63785  42.9963 307.0298 0001836 298.6973  61.3694 15.27567181 22461
STARLINK-33923          
1 63786U 25091M   25261.15081234  .00020628  00000+0  75684-3 0  9997
2 63786  42.9960 307.0197 0000553 272.3296  87.7492 15.27587226 22469
STARLINK-33947          
1 63787U 25091N   25260.45340335  .00015551  00000+0  57374-3 0  9995
2 63787  43.0035 311.2497 0001164 271.7263  88.3455 15.27562702 22403
STARLINK-33882          
1 63788U 25091P   25261.47003173  .00019939  00000+0  73175-3 0  9996
2 63788  43.0014 305.1145 0001397 265.1054  94.9638 15.27596500 22551
STARLINK-33875          
1 63789U 25091Q   25261.19692197  .00024087  00000+0  88178-3 0  9995
2 63789  43.0021 306.4997 0001341 247.6560 112.4150 15.27587493 22528
STARLINK-33869          
1 63790U 25091R   25261.19049410  .00031580  00000+0  11508-2 0  9999
2 63790  43.0028 306.4521 0003668 156.3166 203.7855 15.27617125 22478
STARLINK-33935          
1 63791U 25091S   25259.86106138  .00018168  00000+0  66794-3 0  9997
2 63791  43.0009 314.5437 0000924 287.7227  72.3524 15.27588505 22420
STARLINK-33916          
1 63792U 25091T   25261.16495075  .00016780  00000+0  61808-3 0  9994
2 63792  42.9981 307.1273 0000855 290.3361  69.7399 15.27571090 22517
